{
  "type": "FeatureCollection",
  "features": [
    {
      "type": "Feature",
      "properties": {
        "norad_id": 35442,
        "name": "COSMOS 2251 DEB",
        "group": "cosmos-2251-debris",
        "lat": 29.535321369190807,
        "lon": 104.26687777640774,
        "alt_km": 611.5174955123985,
        "timestamp": "2025-12-14T20:40:32.169023+00:00",
        "meta_object_name": "COSMOS 2251 DEB",
        "meta_object_id": "1993-036AKL",
        "meta_epoch": "2025-12-13T13:48:26.485920",
        "meta_mean_motion": 14.8449662,
        "meta_eccentricity": 0.00037677,
        "meta_inclination": 74.026,
        "meta_ra_of_asc_node": 97.4785,
        "meta_arg_of_pericenter": 84.1617,
        "meta_mean_anomaly": 275.9991,
        "meta_ephemeris_type": 0,
        "meta_classification_type": "U",
        "meta_norad_cat_id": 35442,
        "meta_element_set_no": 999,
        "meta_rev_at_epoch": 87365,
        "meta_bstar": 0.002674471,
        "meta_mean_motion_dot": 0.00022583,
        "meta_mean_motion_ddot": 0,
        "tle_line1": "1 35442U 93036AKL 25347.57530655  .00022583  00000+0  26745-2 0  9991",
        "tle_line2": "2 35442  74.0260  97.4785 0003767  84.1617 275.9991 14.84496620873654"
      },
      "geometry": {
        "type": "Point",
        "coordinates": [
          104.26687777640774,
          29.535321369190807
        ]
      }
    },
    {
      "type": "Feature",
      "properties": {
        "norad_id": 35443,
        "name": "COSMOS 2251 DEB",
        "group": "cosmos-2251-debris",
        "lat": 22.897935240383134,
        "lon": 140.3323153471711,
        "alt_km": 541.6769736309361,
        "timestamp": "2025-12-14T20:40:32.169033+00:00",
        "meta_object_name": "COSMOS 2251 DEB",
        "meta_object_id": "1993-036AKM",
        "meta_epoch": "2025-12-08T06:44:44.274336",
        "meta_mean_motion": 14.96147372,
        "meta_eccentricity": 0.00733753,
        "meta_inclination": 73.988,
        "meta_ra_of_asc_node": 340.6328,
        "meta_arg_of_pericenter": 123.8306,
        "meta_mean_anomaly": 236.9892,
        "meta_ephemeris_type": 0,
        "meta_classification_type": "U",
        "meta_norad_cat_id": 35443,
        "meta_element_set_no": 999,
        "meta_rev_at_epoch": 86811,
        "meta_bstar": 0.0035457848,
        "meta_mean_motion_dot": 0.00042371,
        "meta_mean_motion_ddot": 0,
        "tle_line1": "1 35443U 93036AKM 25342.28106799  .00042371  00000+0  35458-2 0  9991",
        "tle_line2": "2 35443  73.9880 340.6328 0073375 123.8306 236.9892 14.96147372868117"
      },
      "geometry": {
        "type": "Point",
        "coordinates": [
          140.3323153471711,
          22.897935240383134
        ]
      }
    },
    {
      "type": "Feature",
      "properties": {
        "norad_id": 35445,
        "name": "COSMOS 2251 DEB",
        "group": "cosmos-2251-debris",
        "lat": -72.78587832343678,
        "lon": -176.53475565401314,
        "alt_km": 750.8419058299842,
        "timestamp": "2025-12-14T20:40:32.169043+00:00",
        "meta_object_name": "COSMOS 2251 DEB",
        "meta_object_id": "1993-036AKP",
        "meta_epoch": "2025-12-13T22:04:40.513440",
        "meta_mean_motion": 14.59186255,
        "meta_eccentricity": 0.01438132,
        "meta_inclination": 74.0364,
        "meta_ra_of_asc_node": 297.7552,
        "meta_arg_of_pericenter": 24.4999,
        "meta_mean_anomaly": 336.2909,
        "meta_ephemeris_type": 0,
        "meta_classification_type": "U",
        "meta_norad_cat_id": 35445,
        "meta_element_set_no": 999,
        "meta_rev_at_epoch": 87346,
        "meta_bstar": 0.0023329731,
        "meta_mean_motion_dot": 0.00012698,
        "meta_mean_motion_ddot": 0,
        "tle_line1": "1 35445U 93036AKP 25347.91991335  .00012698  00000+0  23330-2 0  9991",
        "tle_line2": "2 35445  74.0364 297.7552 0143813  24.4999 336.2909 14.59186255873467"
      },
      "geometry": {
        "type": "Point",
        "coordinates": [
          -176.53475565401314,
          -72.78587832343678
        ]
      }
    },
    {
      "type": "Feature",
      "properties": {
        "norad_id": 35446,
        "name": "COSMOS 2251 DEB",
        "group": "cosmos-2251-debris",
        "lat": -73.60878000852883,
        "lon": -149.307089594287,
        "alt_km": 768.590768813372,
        "timestamp": "2025-12-14T20:40:32.169053+00:00",
        "meta_object_name": "COSMOS 2251 DEB",
        "meta_object_id": "1993-036AKQ",
        "meta_epoch": "2025-12-14T04:36:11.087136",
        "meta_mean_motion": 14.54631027,
        "meta_eccentricity": 0.00744204,
        "meta_inclination": 74.0468,
        "meta_ra_of_asc_node": 315.4356,
        "meta_arg_of_pericenter": 73.2125,
        "meta_mean_anomaly": 287.7185,
        "meta_ephemeris_type": 0,
        "meta_classification_type": "U",
        "meta_norad_cat_id": 35446,
        "meta_element_set_no": 999,
        "meta_rev_at_epoch": 88029,
        "meta_bstar": 0.00015794342,
        "meta_mean_motion_dot": 6.7e-06,
        "meta_mean_motion_ddot": 0,
        "tle_line1": "1 35446U 93036AKQ 25348.19179499  .00000670  00000+0  15794-3 0  9995",
        "tle_line2": "2 35446  74.0468 315.4356 0074420  73.2125 287.7185 14.54631027880295"
      },
      "geometry": {
        "type": "Point",
        "coordinates": [
          -149.307089594287,
          -73.60878000852883
        ]
      }
    },
    {
      "type": "Feature",
      "properties": {
        "norad_id": 35448,
        "name": "COSMOS 2251 DEB",
        "group": "cosmos-2251-debris",
        "lat": 54.037867099433726,
        "lon": -117.9834565778968,
        "alt_km": 712.728478477392,
        "timestamp": "2025-12-14T20:40:32.169064+00:00",
        "meta_object_name": "COSMOS 2251 DEB",
        "meta_object_id": "1993-036AKS",
        "meta_epoch": "2025-12-12T07:01:38.085024",
        "meta_mean_motion": 14.54259096,
        "meta_eccentricity": 0.00114375,
        "meta_inclination": 73.9043,
        "meta_ra_of_asc_node": 90.3619,
        "meta_arg_of_pericenter": 271.7905,
        "meta_mean_anomaly": 88.1947,
        "meta_ephemeris_type": 0,
        "meta_classification_type": "U",
        "meta_norad_cat_id": 35448,
        "meta_element_set_no": 999,
        "meta_rev_at_epoch": 87328,
        "meta_bstar": 0.0017527146,
        "meta_mean_motion_dot": 7.415e-05,
        "meta_mean_motion_ddot": 0,
        "tle_line1": "1 35448U 93036AKS 25346.29280191  .00007415  00000+0  17527-2 0  9997",
        "tle_line2": "2 35448  73.9043  90.3619 0011437 271.7905  88.1947 14.54259096873287"
      },
      "geometry": {
        "type": "Point",
        "coordinates": [
          -117.9834565778968,
          54.037867099433726
        ]
      }
    },
    {
      "type": "Feature",
      "properties": {
        "norad_id": 35451,
        "name": "COSMOS 2251 DEB",
        "group": "cosmos-2251-debris",
        "lat": 44.02161736285188,
        "lon": 114.26013463442229,
        "alt_km": 441.3160883597984,
        "timestamp": "2025-12-14T20:40:32.169074+00:00",
        "meta_object_name": "COSMOS 2251 DEB",
        "meta_object_id": "1993-036AKV",
        "meta_epoch": "2025-12-12T07:30:05.032800",
        "meta_mean_motion": 15.35535131,
        "meta_eccentricity": 0.00410164,
        "meta_inclination": 73.9311,
        "meta_ra_of_asc_node": 103.5905,
        "meta_arg_of_pericenter": 349.7426,
        "meta_mean_anomaly": 10.2937,
        "meta_ephemeris_type": 0,
        "meta_classification_type": "U",
        "meta_norad_cat_id": 35451,
        "meta_element_set_no": 999,
        "meta_rev_at_epoch": 67399,
        "meta_bstar": 0.0021824439,
        "meta_mean_motion_dot": 0.00078254,
        "meta_mean_motion_ddot": 0,
        "tle_line1": "1 35451U 93036AKV 25346.31255825  .00078254  00000+0  21824-2 0  9994",
        "tle_line2": "2 35451  73.9311 103.5905 0041016 349.7426  10.2937 15.35535131673992"
      },
      "geometry": {
        "type": "Point",
        "coordinates": [
          114.26013463442229,
          44.02161736285188
        ]
      }
    },
    {
      "type": "Feature",
      "properties": {
        "norad_id": 35453,
        "name": "COSMOS 2251 DEB",
        "group": "cosmos-2251-debris",
        "lat": 48.06971215016482,
        "lon": 35.07616201601579,
        "alt_km": 767.7765145607364,
        "timestamp": "2025-12-14T20:40:32.169084+00:00",
        "meta_object_name": "COSMOS 2251 DEB",
        "meta_object_id": "1993-036AKX",
        "meta_epoch": "2025-12-12T10:00:01.192608",
        "meta_mean_motion": 14.37983532,
        "meta_eccentricity": 0.00672601,
        "meta_inclination": 74.0093,
        "meta_ra_of_asc_node": 20.9669,
        "meta_arg_of_pericenter": 155.0047,
        "meta_mean_anomaly": 205.439,
        "meta_ephemeris_type": 0,
        "meta_classification_type": "U",
        "meta_norad_cat_id": 35453,
        "meta_element_set_no": 999,
        "meta_rev_at_epoch": 86214,
        "meta_bstar": 0.0010887113,
        "meta_mean_motion_dot": 3.355e-05,
        "meta_mean_motion_ddot": 0,
        "tle_line1": "1 35453U 93036AKX 25346.41668047  .00003355  00000+0  10887-2 0  9998",
        "tle_line2": "2 35453  74.0093  20.9669 0067260 155.0047 205.4390 14.37983532862149"
      },
      "geometry": {
        "type": "Point",
        "coordinates": [
          35.07616201601579,
          48.06971215016482
        ]
      }
    }
  ]
}